[{"OBJECT_NAME":"EROS C3","OBJECT_ID":"2022-179A","EPOCH":"2026-03-09T22:55:46.034688","MEAN_MOTION":15.11815462,"ECCENTRICITY":0.00031674,"INCLINATION":139.3349,"RA_OF_ASC_NODE":157.9345,"ARG_OF_PERICENTER":31.9169,"MEAN_ANOMALY":328.1831,"EPHEMERIS_TYPE":0,"CLASSIFICATION_TYPE":"U","NORAD_CAT_ID":54880,"ELEMENT_SET_NO":999,"REV_AT_EPOCH":17731,"BSTAR":0.00041429699,"MEAN_MOTION_DOT":7.479e-5,"MEAN_MOTION_DDOT":0},{"OBJECT_NAME":"STARLINK-30186","OBJECT_ID":"2023-107P","EPOCH":"2026-03-09T03:34:26.783904","MEAN_MOTION":15.11062379,"ECCENTRICITY":0.00020628,"INCLINATION":43.0042,"RA_OF_ASC_NODE":340.919,"ARG_OF_PERICENTER":292.4268,"MEAN_ANOMALY":67.6359,"EPHEMERIS_TYPE":0,"CLASSIFICATION_TYPE":"U","NORAD_CAT_ID":57470,"ELEMENT_SET_NO":999,"REV_AT_EPOCH":14504,"BSTAR":0.0016488341,"MEAN_MOTION_DOT":0.00027958,"MEAN_MOTION_DDOT":0}]
